[{"OBJECT_NAME":"STARLINK-4269","OBJECT_ID":"2022-076G","EPOCH":"2026-03-09T09:44:44.356416","MEAN_MOTION":15.08833761,"ECCENTRICITY":0.00013797,"INCLINATION":53.2169,"RA_OF_ASC_NODE":105.4028,"ARG_OF_PERICENTER":82.6987,"MEAN_ANOMALY":277.4162,"EPHEMERIS_TYPE":0,"CLASSIFICATION_TYPE":"U","NORAD_CAT_ID":52992,"ELEMENT_SET_NO":999,"REV_AT_EPOCH":20266,"BSTAR":-9.672399e-6,"MEAN_MOTION_DOT":-4.42e-6,"MEAN_MOTION_DDOT":0},{"OBJECT_NAME":"USA 15","OBJECT_ID":"1986-014A","EPOCH":"2026-03-09T16:19:19.890048","MEAN_MOTION":14.12399541,"ECCENTRICITY":0.06767877,"INCLINATION":63.29,"RA_OF_ASC_NODE":184.3044,"ARG_OF_PERICENTER":111.2434,"MEAN_ANOMALY":256.2258,"EPHEMERIS_TYPE":0,"CLASSIFICATION_TYPE":"U","NORAD_CAT_ID":16591,"ELEMENT_SET_NO":999,"REV_AT_EPOCH":9386,"BSTAR":0.00091695778,"MEAN_MOTION_DOT":0.00017871,"MEAN_MOTION_DDOT":0}]
